STARLINK-36879          
1 67982U 26038X   26063.83336806 -.01363466  61742-3 -20083-2 0  9994
2 67982  97.2741  73.7401 0001090  63.5918 224.9324 16.05113356  2412
STARLINK-36867          
1 67983U 26038Y   26063.83336806 -.01370788  62562-3 -19867-2 0  9999
2 67983  97.2740  73.7423 0001181  64.6362 228.4852 16.05381691  2416
STARLINK-36266          
1 67984U 26038Z   26063.83336806 -.01372551  62622-3 -20034-2 0  9995
2 67984  97.2741  73.7414 0001196  63.2129 227.8248 16.05264714  2384
STARLINK-36802          
1 67985U 26038AA  26063.83336806 -.01350991  60971-3 -19458-2 0  9993
2 67985  97.2739  73.7429 0001142  68.6876 226.3446 16.05481721  2414
STARLINK-36535          
1 67986U 26039A   26062.58336806 -.01224918  48269-3 -21112-2 0  9991
2 67986  42.9991  92.9731 0001745 278.5695 344.8084 16.01492659  1894
STARLINK-36744          
1 67987U 26039B   26062.58336806 -.01220295  47981-3 -20928-2 0  9990
2 67987  42.9990  92.9709 0001729 277.3159 346.8529 16.01576759  1893
STARLINK-36734          
1 67988U 26039C   26062.58336806 -.01216341  47771-3 -20687-2 0  9997
2 67988  42.9990  92.9690 0001748 277.6394 347.3229 16.01717704  1898
STARLINK-36957          
1 67989U 26039D   26062.58336806 -.01207716  47204-3 -20423-2 0  9993
2 67989  42.9989  92.9670 0001762 278.4252 347.2042 16.01813853  1897
STARLINK-36951          
1 67990U 26039E   26062.58336806 -.01203403  46966-3 -20187-2 0  9995
2 67990  42.9990  92.9652 0001818 277.2446 349.1623 16.01949740  1896
STARLINK-36941          
1 67991U 26039F   26062.58336806 -.01198456  46655-3 -20009-2 0  9995
2 67991  42.9989  92.9634 0001734 278.6654 348.3551 16.02029759  1899
STARLINK-36950          
1 67992U 26039G   26062.58336806 -.01191871  46252-3 -19752-2 0  9996
2 67992  42.9990  92.9616 0001750 277.6024 350.1725 16.02154769  1894
STARLINK-36975          
1 67993U 26039H   26062.58336806 -.01183344  45705-3 -19480-2 0  9993
2 67993  42.9990  92.9599 0001823 277.2001 351.2886 16.02266174  1891
